#dP2021  5 11 18  0  0.00000000      96 __u+U ITR00 EXT  IAC
## 2157 237600.00000000   900.00000000 59345 0.7500000000000
+  116   C06C07C08C09C10C11C12C13C14C16C19C20C21C22C23C24C25
+        C26C27C28C29C30C32C33C34C35C36C37C38C39C40C41C42C43
+        C44C45C46E01E02E03E04E05E07E08E09E11E12E13E14E15E18
+        E19E21E24E25E26E27E30E31E33E36G01G02G03G04G05G06G07
+        G08G09G10G12G13G14G15G16G17G18G19G20G21G22G23G24G25
+        G26G27G28G29G30G31G32J01J02J03R01R02R03R04R05R07R08
+        R09R11R12R13R14R15R16R17R18R19R20R21R22R24  0  0  0
++        10  7  8 11  8  9 10  8  9  9  7  8  7  9  9  8  8
++         9 10  9  7  8  8  9  9  9  9  8 10  8 11  7  8  9
++         9  9  7  8  8  8  8  8  7  8  8  9  7  8  8  7  8
++         9  7  8  7  8  7  8  7  7  7  7  8  8  8  8  8  7
++         7  7  8  7  8  8  7  8  6  8  8  7 11  7  7  8  8
++         7  7  6  8  8  7  8 11 14  8 10  8  8  7  9  7  7
++        10 10  7  9  8  9  8  7  8  9  9  9  9  9  0  0  0
%c M  cc GPS ccc cccc cccc cccc cccc ccccc ccccc ccccc ccccc
%c cc cc ccc ccc cccc cccc cccc cccc ccccc ccccc ccccc ccccc
%f  0.0000000  0.000000000  0.00000000000  0.000000000000000
%f  0.0000000  0.000000000  0.00000000000  0.000000000000000
%i    0    0    0    0      0      0      0      0         0
%i    0    0    0    0      0      0      0      0         0
/* IAC                                ULTRA-RAPID PREDICTION
/* S/V CLOCKS ARE ALIGNED TO GNSS TIME                      
/* G:C1WC2W R:C1PC2P E:C1XC5X C:C2IC6I J:C1CC2S             
/* PCV:IGS14_2148 OL/AL:FES2004  NONE     YN ORB:CoN CLK:CoN
*  2021 05 12 17 15  0.00000000
PC06  -7884.127528  26915.670549  32095.790221    376.890027
PC07 -24175.222536  25848.029198 -23038.866702   -215.015249
PC08 -16798.601904  37943.878577  -6197.114287   -890.287614
PC09   5346.563661  35014.325832  23504.787683    528.935994
PC10  -7858.162301  27841.216507 -30592.335654    -43.714382
PC11  14242.479156  -6046.453780  23277.243463    336.901067
PC12  19959.350763  12376.427509  15090.348867    886.989416
PC13  -8427.957065  40641.202717   6739.751463    257.981450
PC14  25184.322454  -8013.933037  -8832.675150    711.828534
PC16  -4336.339854  28490.112522  30977.291066   -833.733201
PC19 -18259.094556  12952.030725  16707.577145    832.268403
PC20 -27743.428790   2927.098372   1269.079085   -920.128907
PC21  21010.385142   9437.611570  15760.684532   -941.924251
PC22   2055.268612  15784.489712  22929.338358   -957.180731
PC23   3188.444453 -25148.511490  11669.439352   -905.670096
PC24  18778.504813  -6078.334621 -19742.990019   -847.757123
PC25  14819.407671 -23086.779866  -5172.147832   -918.151615
PC26  11753.733011  12198.279972 -22179.151206    908.069312
PC27 -18473.184189 -19754.104181  -6854.537292    530.505402
PC28  -7220.268942 -24724.254732  10741.518487    -75.287799
PC29  -7668.308684  15465.426434 -21937.216991    391.315471
PC30 -19144.491281  -3043.998801 -20072.733000    466.710207
PC32 -21126.934960  -9247.101106 -15701.824276   -934.488613
PC33  18234.583288 -13018.802533 -16609.722798   -938.817977
PC34  18935.152634   2371.769842  20358.417928   -675.081206
PC35   7786.558738  24452.561938 -11016.746949   -284.154343
PC36 -15529.163150  22522.741139   5538.204637   -727.064636
PC37 -10871.410950 -13355.964224  21977.668307   -894.635389
PC38 -13892.934212  39725.575568  -1469.485350    148.264572
PC39    -54.432811  29894.244262  29803.000110     31.026719
PC40 -14813.546709  22803.863381 -32241.205013    160.258260
PC41  -1789.196836 -15817.015250 -22866.318436   -944.628237
PC42  27787.465363  -2400.582529   -450.432478   -915.890138
PC43   8251.116771 -15045.368661  21991.805684   -727.062717
PC44  19092.022092  19281.135187   6589.111963    184.344096
PC45  -3106.432792  25086.261741 -11800.665728    438.267510
PC46 -18796.108848   7152.389973  19339.223459    274.199646
PE01   7673.242106  14801.504288 -24459.612818  -1106.306633
PE02  -7778.807346 -14728.409559  24465.880501    218.581888
PE03 -18682.689780 -18527.514643 -13568.606859   -430.149730
PE04  27947.940520   8753.725761  -4276.065501   -769.444701
PE05   1722.963433 -17580.180341 -23742.861536   -281.534478
PE07 -20901.114436   6402.188334  19975.942634   -536.817649
PE08 -28013.545835  -8400.154097   4624.950761   6003.239049
PE09  20675.279816  -6516.677188 -20137.412371   5670.190324
PE11  12975.915492 -14307.637120  22413.090012   5988.749944
PE12  16308.491702   8701.957622  23122.737964   5214.168122
PE13 -13027.250920  13927.480133 -22639.682565    416.301252
PE14  12622.858624  22253.795426 -11879.417428  -1428.604789
PE15 -16268.063470  -8583.322872 -23185.362540    814.654039
PE18 -24391.591759 -16290.205439  -3194.181588  -1563.666882
PE19  16744.885133  18959.340433  15385.156660    275.145680
PE21 -11211.607926  22023.541845 -16295.319332   -664.508899
PE24  24695.095089 -16163.465215  -2409.588815   -896.339768
PE25  11396.212355 -22037.688557  16148.612238   -533.616424
PE26  -1795.032614  28449.982660  -7978.659456   1818.810643
PE27 -24347.101744  16750.490421   1622.311898    -30.886809
PE30 -22662.691136    714.807447  19011.303686   2951.140686
PE31  23080.770916  -1676.718452 -18452.706246   -481.089979
PE33   9926.942487  26008.189539  10082.846517   -468.520840
PE36   2128.560276 -28184.055460   8770.124924   -206.139092
PG01  13199.832905 -13874.555193  17988.401115    691.086000
PG02 -13295.400692 -11610.173358 -19180.351884   -603.629395
PG03  23046.883327 -12867.962935  -2403.536210   -162.064091
PG04  16492.085165  -5356.621852 -20126.650013   -195.981540
PG05 -23572.619343   2552.883909 -12312.987093    -41.730611
PG06  -6876.087905 -22097.087545 -12922.740939     15.109878
PG07   7058.709085 -24255.395083  -6980.893030    148.890669
PG08  22154.186163   2518.351211  14650.498976    -20.963978
PG09   6134.939802 -14319.079867 -21569.870123   -345.039658
PG10   1125.774535  15783.948420  21406.915067   -120.554674
PG12 -24486.197282  10081.856583   -586.756718    -40.146935
PG13 -22152.432478 -11819.461138   8734.315479    131.174129
PG14    195.699953 -16186.925745  21042.163321     86.718083
PG15 -22447.048637     96.265166  14098.671383   -149.878494
PG16  21822.915319   3039.146779 -15403.346845   -324.079531
PG17  -8888.484416 -20000.955151  15470.223440    441.282551
PG18  -5195.288235  25730.580670  -3823.575754    350.542416
PG19 -16023.433732 -19928.010741   7109.001435     -0.889790
PG20 -22984.820534  12525.185239  -3317.337527    522.258432
PG21  15285.208009  -5383.482086  21684.273857    117.637943
PG22  24083.547456  -7799.593484   7895.042230   -616.007520
PG23 -10871.546994  18095.363907  16069.302981    107.251481
PG24 -14771.585088   8686.675502  19951.602176     73.356397
PG25 -16808.946996  17018.532426 -11511.521110    135.899534
PG26  14849.731566   8805.217550 -20306.404030     84.403626
PG27  23366.839273  12042.148063   4825.550345   -128.860497
PG28  -5300.378037 -14253.774035  22330.347049    572.438149
PG29  -6963.701959  13184.045137 -22025.641777   -345.858768
PG30  -1499.565110 -25798.783146   5628.712998   -425.146344
PG31   8766.121361  19746.506970 -15219.028759   -116.888527
PG32  12142.174777  19610.193789  13431.832940     21.330427
PJ01 -30526.426114  22040.835740  24031.893237   -377.882992
PJ02 -34060.145607  24715.820675   2452.173875      7.925850
PJ03 -20896.719903  21415.867260 -25122.957634     -5.294268
PR01  22380.399101  -3540.580358 -11690.962545     79.325677
PR02   3986.471097 -10415.698970 -22896.886481    478.324310
PR03 -14783.179800 -10330.840676 -17966.700063     35.810229
PR04 -24945.926862  -4368.285906  -2999.434010     86.466872
PR05 -21183.834643   3899.952022  13664.728870     71.590275
PR07  15397.911132  10253.394695  17626.082256    -42.497596
PR08  24953.939916   4400.668932   3074.554089    -58.979003
PR09 -10156.808748  21631.423939  -9007.475332     -7.497109
PR11  13653.463556  -1679.882422 -21468.202763     -3.778976
PR12  17325.192085 -16604.260729  -8652.670465    228.330741
PR13  10585.312735 -21608.194546   8447.977691    -54.645463
PR14  -2712.579960 -13699.640496  21351.214988     64.170478
PR15 -14005.664206   1868.635920  21255.371758    103.865936
PR16 -16804.214485  17485.960704   7675.319137    -15.032338
PR17 -11047.304815 -22862.430869  -2611.800645    423.454264
PR18 -13728.293111 -12235.256831 -17639.088479     76.255389
PR19  -9644.278383   3757.981090 -23317.678175   -143.441686
PR20   1053.652867  20777.078562 -14791.274200    -48.987722
PR21  11382.208183  22488.235165   3850.583401   -208.438119
PR22  13593.091948  11485.595096  18303.231744   -112.389056
PR24  -1506.317178 -21206.951543  14113.147816     42.353415
EOF
